OBJECT_NAME,OBJECT_ID,EPOCH,MEAN_MOTION,ECCENTRICITY,INCLINATION,RA_OF_ASC_NODE,ARG_OF_PERICENTER,MEAN_ANOMALY,EPHEMERIS_TYPE,CLASSIFICATION_TYPE,NORAD_CAT_ID,ELEMENT_SET_NO,REV_AT_EPOCH,BSTAR,MEAN_MOTION_DOT,MEAN_MOTION_DDOT
POLYITAN-1,2014-033AJ,2026-07-18T00:58:49.731168,15.34281566,.00076502,98.0931,228.2449,55.8959,304.3007,0,U,40042,999,65832,.33244666E-3,.10956E-3,0
TIGRISAT,2014-033AK,2026-07-18T09:01:41.702304,14.85254459,.00483621,97.7869,348.6813,333.7651,26.1115,0,U,40043,999,65025,.85548866E-4,.693E-5,0
AEROCUBE 6A,2014-033AM,2026-07-18T21:08:01.056192,14.98367819,.00361296,97.7263,6.5012,268.2048,91.5036,0,U,40045,999,65136,.28532446E-3,.3385E-4,0
AEROCUBE 6B,2014-033AN,2026-07-17T23:38:03.776352,14.99812735,.0038128,97.7206,5.4660,260.2360,99.4557,0,U,40046,999,65137,.21134953E-3,.2592E-4,0
CANX-4,2014-034C,2026-07-18T21:36:05.457888,14.81314671,.00113763,98.3078,76.3714,269.5009,90.4899,0,U,40055,999,64922,.57094705E-4,.388E-5,0
CANX-5,2014-034D,2026-07-18T15:04:13.642752,14.81331659,.0011373,98.3080,76.1348,270.7559,89.2349,0,U,40056,999,63999,.53855E-4,.363E-5,0
UKUBE-1,2014-037F,2026-07-18T07:14:20.651424,15.13977056,.00031905,98.4246,205.8544,82.4039,277.7553,0,U,40074,999,65326,.25747607E-3,.4593E-4,0
BRITE-PL2 (HEWELIUSZ),2014-049B,2026-07-18T20:06:50.404896,14.94691922,.0013981,97.9121,312.0880,10.3613,349.7893,0,U,40119,999,64617,.66529727E-4,.663E-5,0
AEROCUBE 5C,2015-058B,2026-07-18T21:14:57.642432,14.91590552,.01325939,64.7650,163.9663,51.0528,310.2313,0,U,40965,999,37038,.1667956E-3,.1805E-4,0
AEROCUBE 7,2015-058C,2026-07-18T14:09:29.776608,14.95932772,.0122297,64.7617,146.4389,49.4620,311.7067,0,U,40966,999,37065,.21398E-3,.2608E-4,0
FOX-1A (AO-85),2015-058D,2026-07-18T16:12:01.429920,14.91100292,.01326568,64.7726,181.1175,44.4905,316.6768,0,U,40967,999,11826,.14854367E-3,.1565E-4,0
SINOD-D 1,2015-058E,2026-07-18T21:33:40.939200,14.96109796,.0121372,64.7740,159.5887,40.7614,320.2502,0,U,40968,999,12140,.23286286E-3,.2864E-4,0
SNAP-3 ALICE,2015-058G,2026-07-18T19:44:19.329216,15.67917417,.00253896,64.7500,353.9098,346.0004,14.0439,0,U,40970,999,12183,.79100508E-3,.90133E-3,0
LMRST-SAT,2015-058H,2026-07-18T08:52:54.320160,14.90714583,.01341599,64.7733,178.4631,46.6043,314.6146,0,U,40971,999,11820,.15279271E-3,.1603E-4,0
SNAP-3 EDDIE,2015-058J,2026-07-18T18:52:55.733088,15.69367196,.00264973,64.7412,344.5144,348.5687,11.4857,0,U,40972,999,12397,.85022109E-3,.103222E-2,0
PROPCUBE 3,2015-058K,2026-07-18T20:44:10.661856,14.94434240,.01260617,64.7678,153.5509,47.6136,313.5564,0,U,40973,999,11953,.20489026E-3,.2408E-4,0
BISONSAT,2015-058L,2026-07-18T21:10:49.374624,15.16990131,.00824542,64.7579,71.1001,34.2994,326.3415,0,U,40974,999,12042,.35148908E-3,.7405E-4,0
SNAP-3 JIMI,2015-058M,2026-07-18T20:56:15.995904,15.02640195,.01081286,64.7646,119.4954,42.9160,318.0330,0,U,40975,999,11898,.27263911E-3,.3948E-4,0
PROPCUBE 1 (FLORA),2015-058N,2026-07-18T06:52:35.962176,14.89337354,.013271,64.7717,198.8406,48.9109,312.3373,0,U,40976,999,12089,.13603607E-3,.1347E-4,0
SINOD-D 3,2015-058P,2026-07-18T21:37:06.610944,14.94191999,.01213664,64.7710,176.7723,45.7129,315.3862,0,U,40977,999,11949,.20745632E-3,.2396E-4,0
RAVAN,2016-067B,2026-07-18T16:17:14.826048,15.57711993,.00027043,97.9829,92.9607,200.6986,159.4159,0,U,41849,999,53259,.45990676E-3,.34061E-3,0
CELTEE 1,2016-067C,2026-07-18T14:41:07.237248,15.19959377,.0002402,98.0628,68.3217,105.5139,254.6359,0,U,41850,999,53065,.11748E-3,.2449E-4,0
OPTICUBE 04,2016-067D,2026-07-18T02:20:25.600128,15.09778428,.00159555,98.0673,52.9918,18.5232,341.6573,0,U,41851,999,52983,.61748732E-4,.928E-5,0
AEROCUBE 8D,2016-067E,2026-07-18T14:14:16.119168,15.24796864,.0004388,98.0633,72.1560,48.3639,311.7971,0,U,41852,999,53085,.15676E-3,.3806E-4,0
AEROCUBE 8C,2016-067F,2026-07-18T21:00:41.353632,15.25053308,.00038883,98.0510,69.6471,326.6849,33.4141,0,U,41853,999,53089,.15503173E-3,.3792E-4,0
CORVUS BC2,2017-042X,2026-07-18T21:07:04.235232,15.06466156,.00130687,97.4094,0.0065,10.4806,349.6692,0,U,42846,999,49183,.88186011E-4,.1244E-4,0
CORVUS BC1,2017-042Y,2026-07-18T20:54:17.882784,15.06631229,.00112699,97.4127,0.8326,346.8616,13.2316,0,U,42847,999,49186,.12069351E-3,.1731E-4,0
MAKERSAT 0,2017-073D,2026-07-18T14:02:09.304224,15.33085965,.0105621,97.4572,82.3624,160.2361,200.3022,0,U,43016,999,47127,.27996E-3,.10616E-3,0
SIRION PATHFINDER-2,2018-099B,2026-07-18T16:38:43.265184,15.14792549,.00088419,97.4233,248.0043,179.1290,180.9959,0,U,43759,999,41739,.12403204E-3,.2239E-4,0
CORVUS BC4,2018-099K,2026-07-18T16:14:49.479648,15.12715710,.00066716,97.4047,241.7370,245.7505,114.3030,0,U,43767,999,41716,.11926143E-3,.2026E-4,0
